H1 CPF 01  gfz 2021 01 10 13  5102 terrasarx 
H2 0702601  6201 31698    2021 01 10 12 59 42 2021 01 15 00 00 42   120 1 1  0 0 0
H9
10 0 59226  72702.000000  0   -5780983.242   3738428.231   -268573.002
10 0 59226  72822.000000  0   -5604244.619   3835389.346  -1168175.711
10 0 59226  72942.000000  0   -5328564.873   3861415.468  -2047234.286
10 0 59226  73062.000000  0   -4960095.522   3814429.784  -2890317.605
10 0 59226  73182.000000  0   -4506633.948   3693760.749  -3682659.427
10 0 59226  73302.000000  0   -3977451.005   3500173.738  -4410418.686
10 0 59226  73422.000000  0   -3383094.064   3235874.059  -5060918.557
10 0 59226  73542.000000  0   -2735169.859   2904481.051  -5622860.188
10 0 59226  73662.000000  0   -2046114.367   2510975.816  -6086509.994
10 0 59226  73782.000000  0   -1328950.925   2061622.339  -6443858.369
10 0 59226  73902.000000  0    -597044.129   1563864.355  -6688745.570
10 0 59226  74022.000000  0     136145.788   1026201.229  -6816957.337
10 0 59226  74142.000000  0     857304.400    458044.242  -6826289.299
10 0 59226  74262.000000  0    1553499.686   -130444.766  -6716582.513
10 0 59226  74382.000000  0    2212409.059   -728531.419  -6489724.533
10 0 59226  74502.000000  0    2822532.341  -1325099.337  -6149620.562
10 0 59226  74622.000000  0    3373390.151  -1908851.502  -5702133.102
10 0 59226  74742.000000  0    3855704.094  -2468519.555  -5154992.197
10 0 59226  74862.000000  0    4261557.539  -2993080.444  -4517673.067
10 0 59226  74982.000000  0    4584530.007  -3471973.659  -3801241.717
10 0 59226  75102.000000  0    4819805.180  -3895314.614  -3018172.673
10 0 59226  75222.000000  0    4964250.576  -4254101.408  -2182138.683
10 0 59226  75342.000000  0    5016464.835  -4540408.841  -1307774.744
10 0 59226  75462.000000  0    4976791.415  -4747565.709   -410421.044
10 0 59226  75582.000000  0    4847296.239  -4870309.982    494151.119
10 0 59226  75702.000000  0    4631710.366  -4904916.716   1390023.992
10 0 59226  75822.000000  0    4335338.623  -4849295.079   2261422.769
10 0 59226  75942.000000  0    3964936.149  -4703052.534   3093001.497
10 0 59226  76062.000000  0    3528557.340  -4467524.807   3870120.819
10 0 59226  76182.000000  0    3035379.364  -4145770.231   4579111.133
10 0 59226  76302.000000  0    2495506.291  -3742528.710   5207515.360
10 0 59226  76422.000000  0    1919758.828  -3264147.800   5744307.077
10 0 59226  76542.000000  0    1319453.699  -2718476.858   6180081.375
10 0 59226  76662.000000  0     706178.448  -2114732.445   6507213.605
10 0 59226  76782.000000  0      91566.190  -1463338.774   6719986.342
10 0 59226  76902.000000  0    -512924.801   -775745.419   6814683.540
10 0 59226  77022.000000  0   -1096223.557    -64224.453   6789651.444
10 0 59226  77142.000000  0   -1647848.332    658348.361   6645325.483
10 0 59226  77262.000000  0   -2158094.343   1378725.900   6384223.099
10 0 59226  77382.000000  0   -2618204.809   2083531.510   6010902.639
10 0 59226  77502.000000  0   -3020522.374   2759507.105   5531889.031
10 0 59226  77622.000000  0   -3358619.330   3393764.156   4955566.383
10 0 59226  77742.000000  0   -3627404.364   3974032.354   4292037.313
10 0 59226  77862.000000  0   -3823202.785   4488902.085   3552950.808
10 0 59226  77982.000000  0   -3943808.439   4928055.103   2751300.129
10 0 59226  78102.000000  0   -3988505.926   5282477.536   1901193.150
10 0 59226  78222.000000  0   -3958061.510   5544649.216   1017600.545
10 0 59226  78342.000000  0   -3854684.685   5708705.919    116087.183
10 0 59226  78462.000000  0   -3681960.705   5770570.996   -787470.397
10 0 59226  78582.000000  0   -3444753.354   5728049.854  -1677174.306
10 0 59226  78702.000000  0   -3149081.596   5580885.084  -2537394.906
10 0 59226  78822.000000  0   -2801972.540   5330772.312  -3353051.315
10 0 59226  78942.000000  0   -2411298.412   4981336.904  -4109878.859
10 0 59226  79062.000000  0   -1985599.614   4538072.311  -4794677.907
10 0 59226  79182.000000  0   -1533898.976   4008243.477  -5395537.995
10 0 59226  79302.000000  0   -1065512.498   3400759.626  -5902037.202
10 0 59226  79422.000000  0    -589858.952   2726016.583  -6305414.260
10 0 59226  79542.000000  0    -116272.690   1995712.686  -6598708.582
10 0 59226  79662.000000  0     346175.339   1222644.366  -6776868.822
10 0 59226  79782.000000  0     788846.596    420483.446  -6836831.480
10 0 59226  79902.000000  0    1203692.757   -396460.634  -6777568.019
10 0 59226  80022.000000  0    1583398.154  -1213491.136  -6600099.292
10 0 59226  80142.000000  0    1921505.305  -2015781.207  -6307479.083
10 0 59226  80262.000000  0    2212523.458  -2788636.012  -5904747.819
10 0 59226  80382.000000  0    2452017.790  -3517757.825  -5398856.448
10 0 59226  80502.000000  0    2636678.733  -4189511.656  -4798557.307
10 0 59226  80622.000000  0    2764368.205  -4791181.552  -4114261.701
10 0 59226  80742.000000  0    2834142.714  -5311214.959  -3357870.324
10 0 59226  80862.000000  0    2846252.854  -5739453.306  -2542575.274
10 0 59226  80982.000000  0    2802118.711  -6067339.972  -1682634.344
10 0 59226  81102.000000  0    2704281.765  -6288101.539   -793122.628
10 0 59226  81222.000000  0    2556331.835  -6396896.352    110336.108
10 0 59226  81342.000000  0    2362811.609  -6390924.535   1011850.246
10 0 59226  81462.000000  0    2129102.044  -6269499.114   1895547.659
10 0 59226  81582.000000  0    1861289.875  -6034073.622   2745865.639
10 0 59226  81702.000000  0    1566021.372  -5688225.179   3547832.855
10 0 59226  81822.000000  0    1250346.359  -5237595.575   4287338.503
10 0 59226  81942.000000  0     921556.642  -4689792.306   4951383.319
10 0 59226  82062.000000  0     587022.615  -4054252.506   5528309.631
10 0 59226  82182.000000  0     254031.329  -3342070.000   6008004.612
10 0 59226  82302.000000  0     -70368.665  -2565791.920   6382071.833
10 0 59226  82422.000000  0    -379513.528  -1739191.884   6643970.935
10 0 59226  82542.000000  0    -667258.237   -877023.077   6789126.094
10 0 59226  82662.000000  0    -928096.919      5246.592   6815002.244
10 0 59226  82782.000000  0   -1157267.303    891712.662   6721146.780
10 0 59226  82902.000000  0   -1350837.201   1766320.345   6509196.616
10 0 59226  83022.000000  0   -1505771.904   2613154.469   6182851.526
10 0 59226  83142.000000  0   -1619982.069   3416729.338   5747813.609
10 0 59226  83262.000000  0   -1692350.730   4162273.652   5211692.970
10 0 59226  83382.000000  0   -1722739.107   4836006.504   4583881.703
10 0 59226  83502.000000  0   -1711971.614   5425399.533   3875394.530
10 0 59226  83622.000000  0   -1661799.097   5919418.481   3098678.907
10 0 59226  83742.000000  0   -1574842.994   6308738.911   2267397.242
10 0 59226  83862.000000  0   -1454519.588   6585931.908   1396184.302
10 0 59226  83982.000000  0   -1304945.334   6745613.546    500384.194
10 0 59226  84102.000000  0   -1130827.150   6784554.269   -404226.502
10 0 59226  84222.000000  0    -937340.133   6701747.239  -1301725.640
10 0 59226  84342.000000  0    -729994.744   6498428.960  -2176337.288
10 0 59226  84462.000000  0    -514498.946   6178052.229  -3012716.420
10 0 59226  84582.000000  0    -296618.674   5746216.838  -3796221.125
10 0 59226  84702.000000  0     -82039.142   5210560.504  -4513169.450
10 0 59226  84822.000000  0     123769.326   4580611.502  -5151075.796
10 0 59226  84942.000000  0     315678.138   3867607.880  -5698862.311
10 0 59226  85062.000000  0     489016.892   3084286.983  -6147042.805
10 0 59226  85182.000000  0     639676.504   2244650.551  -6487875.940
10 0 59226  85302.000000  0     764197.905   1363711.898  -6715487.147
10 0 59226  85422.000000  0     859844.813    457228.834  -6825960.013
10 0 59226  85542.000000  0     924659.280   -458574.144  -6817396.555
10 0 59226  85662.000000  0     957499.375  -1367290.718  -6689945.444
10 0 59226  85782.000000  0     958058.568  -2252618.553  -6445798.028
10 0 59226  85902.000000  0     926867.339  -3098643.515  -6089155.981
10 0 59226  86022.000000  0     865276.037  -3890122.626  -5626168.729
10 0 59226  86142.000000  0     775418.911  -4612758.304  -5064836.432
10 0 59226  86262.000000  0     660161.296  -5253458.482  -4414883.003
10 0 59226  86382.000000  0     523029.149  -5800580.638  -3687599.032
10 0 59227    102.000000  0     368122.528  -6244153.200  -2895654.148
10 0 59227    222.000000  0     200014.885  -6576068.905  -2052882.671
10 0 59227    342.000000  0      23640.193  -6790246.588  -1174044.288
10 0 59227    462.000000  0    -155829.927  -6882754.586   -274563.169
10 0 59227    582.000000  0    -333115.896  -6851892.040    629747.790
10 0 59227    702.000000  0    -502963.467  -6698226.812   1522971.763
10 0 59227    822.000000  0    -660277.306  -6424588.411   2389377.232
10 0 59227    942.000000  0    -800251.211  -6036014.411   3213704.837
10 0 59227   1062.000000  0    -918490.395  -5539650.732   3981444.397
10 0 59227   1182.000000  0   -1011124.733  -4944611.115   4679093.880
10 0 59227   1302.000000  0   -1074909.508  -4261800.450   5294398.124
10 0 59227   1422.000000  0   -1107310.638  -3503705.834   5816563.787
10 0 59227   1542.000000  0   -1106573.592  -2684157.757   6236445.892
10 0 59227   1662.000000  0   -1071773.150  -1818069.844   6546700.508
10 0 59227   1782.000000  0   -1002844.371   -921164.582   6741906.528
10 0 59227   1902.000000  0    -900595.193     -9685.884   6818655.747
10 0 59227   2022.000000  0    -766699.503    899895.428   6775608.490
10 0 59227   2142.000000  0    -603669.485   1791178.759   6613515.923
10 0 59227   2262.000000  0    -414808.473   2648129.005   6335207.655
10 0 59227   2382.000000  0    -204145.350   3455364.929   5945545.415
10 0 59227   2502.000000  0      23648.002   4198437.243   5451343.225
10 0 59227   2622.000000  0     263355.531   4864091.025   4861254.059
10 0 59227   2742.000000  0     509330.915   5440509.639   4185624.821
99
